start=new Date('2021-09-10T00:00:00.000Z').valueOf();
sats=[{"ARG_OF_PERICENTER":"146.3668","MEAN_ELEMENT_THEORY":"SGP4","MEAN_MOTION_DOT":"-0.00025351","OBJECT_TYPE":"PAYLOAD","ELEMENT_SET_NO":"999","PERIAPSIS":"546.270","TLE_LINE2":"2 48464  53.0559   1.8164 0001345 146.3668  41.5119 15.06403873  3597","PERIOD":"95.592","SEMIMAJOR_AXIS":"6925.337","MEAN_MOTION_DDOT":"0.0000000000000","LAUNCH_DATE":"2021-05-09","BSTAR":"-0.00168890000000","REF_FRAME":"TEME","TLE_LINE1":"1 48464U 21040AN  21252.91667824 -.00025351  00000-0 -16889-2 0  9990","CENTER_NAME":"EARTH","OBJECT_NAME":"STARLINK-2686","SITE":"AFETR","NORAD_CAT_ID":"48464","REV_AT_EPOCH":"359","CLASSIFICATION_TYPE":"U","EPHEMERIS_TYPE":"0","DECAY_DATE":null,"EPOCH":"2021-09-09T22:00:00.999936","COUNTRY_CODE":"US","RCS_SIZE":"LARGE","INCLINATION":"53.0559","RA_OF_ASC_NODE":"1.8164","MEAN_MOTION":"15.06403873","OBJECT_ID":"2021-040AN","TIME_SYSTEM":"UTC","GP_ID":"184409825","FILE":"3111873","ECCENTRICITY":"0.00013450","MEAN_ANOMALY":"41.5119","APOAPSIS":"548.133"},{"ARG_OF_PERICENTER":"125.7559","OBJECT_TYPE":"PAYLOAD","MEAN_ELEMENT_THEORY":"SGP4","MEAN_MOTION_DOT":"-0.00023919","ELEMENT_SET_NO":"999","PERIAPSIS":"546.296","TLE_LINE2":"2 48465  53.0544   1.8097 0001329 125.7559   2.1367 15.06399166  3608","SEMIMAJOR_AXIS":"6925.351","PERIOD":"95.592","MEAN_MOTION_DDOT":"0.0000000000000","LAUNCH_DATE":"2021-05-09","BSTAR":"-0.00159230000000","REF_FRAME":"TEME","TLE_LINE1":"1 48465U 21040AP  21252.91667824 -.00023919  00000-0 -15923-2 0  9997","OBJECT_NAME":"STARLINK-2681","CENTER_NAME":"EARTH","SITE":"AFETR","NORAD_CAT_ID":"48465","REV_AT_EPOCH":"360","CLASSIFICATION_TYPE":"U","DECAY_DATE":null,"EPHEMERIS_TYPE":"0","COUNTRY_CODE":"US","EPOCH":"2021-09-09T22:00:00.999936","RCS_SIZE":"LARGE","INCLINATION":"53.0544","MEAN_MOTION":"15.06399166","RA_OF_ASC_NODE":"1.8097","OBJECT_ID":"2021-040AP","TIME_SYSTEM":"UTC","GP_ID":"184410012","FILE":"3111873","ECCENTRICITY":"0.00013290","APOAPSIS":"548.136","MEAN_ANOMALY":"2.1367"},{"BSTAR":"-0.00176360000000","REF_FRAME":"TEME","TLE_LINE1":"1 48466U 21040AQ  21252.91667824 -.00026458  00000-0 -17636-2 0  9992","CENTER_NAME":"EARTH","OBJECT_NAME":"STARLINK-2687","MEAN_MOTION_DDOT":"0.0000000000000","LAUNCH_DATE":"2021-05-09","PERIAPSIS":"546.342","TLE_LINE2":"2 48466  53.0676   1.7671 0001228 141.2612  66.6057 15.06406906  3593","SEMIMAJOR_AXIS":"6925.327","PERIOD":"95.592","ARG_OF_PERICENTER":"141.2612","MEAN_MOTION_DOT":"-0.00026458","MEAN_ELEMENT_THEORY":"SGP4","OBJECT_TYPE":"PAYLOAD","ELEMENT_SET_NO":"999","GP_ID":"184409919","FILE":"3111873","ECCENTRICITY":"0.00012280","APOAPSIS":"548.043","MEAN_ANOMALY":"66.6057","MEAN_MOTION":"15.06406906","RA_OF_ASC_NODE":"1.7671","TIME_SYSTEM":"UTC","OBJECT_ID":"2021-040AQ","EPOCH":"2021-09-09T22:00:00.999936","COUNTRY_CODE":"US","RCS_SIZE":"LARGE","INCLINATION":"53.0676","SITE":"AFETR","NORAD_CAT_ID":"48466","CLASSIFICATION_TYPE":"U","REV_AT_EPOCH":"359","EPHEMERIS_TYPE":"0","DECAY_DATE":null},{"INCLINATION":"53.0559","RCS_SIZE":"LARGE","EPOCH":"2021-09-09T22:00:00.999936","COUNTRY_CODE":"US","EPHEMERIS_TYPE":"0","DECAY_DATE":null,"REV_AT_EPOCH":"360","CLASSIFICATION_TYPE":"U","NORAD_CAT_ID":"48467","SITE":"AFETR","APOAPSIS":"547.923","MEAN_ANOMALY":"309.4005","ECCENTRICITY":"0.00011600","FILE":"3111873","GP_ID":"184410419","TIME_SYSTEM":"UTC","OBJECT_ID":"2021-040AR","RA_OF_ASC_NODE":"1.8156","MEAN_MOTION":"15.06430616","SEMIMAJOR_AXIS":"6925.255","PERIOD":"95.590","TLE_LINE2":"2 48467  53.0559   1.8156 0001160 118.4743 309.4005 15.06430616  3607","PERIAPSIS":"546.316","ELEMENT_SET_NO":"999","MEAN_ELEMENT_THEORY":"SGP4","MEAN_MOTION_DOT":"-0.00068293","OBJECT_TYPE":"PAYLOAD","ARG_OF_PERICENTER":"118.4743","OBJECT_NAME":"STARLINK-2659","CENTER_NAME":"EARTH","TLE_LINE1":"1 48467U 21040AR  21252.91667824 -.00068293  00000-0 -46063-2 0  9992","REF_FRAME":"TEME","BSTAR":"-0.00460630000000","LAUNCH_DATE":"2021-05-09","MEAN_MOTION_DDOT":"0.0000000000000"},{"RA_OF_ASC_NODE":"1.8123","MEAN_MOTION":"15.06398933","OBJECT_ID":"2021-040AS","TIME_SYSTEM":"UTC","GP_ID":"184410148","FILE":"3111873","ECCENTRICITY":"0.00009960","APOAPSIS":"547.907","MEAN_ANOMALY":"41.3516","SITE":"AFETR","NORAD_CAT_ID":"48468","CLASSIFICATION_TYPE":"U","REV_AT_EPOCH":"359","DECAY_DATE":null,"EPHEMERIS_TYPE":"0","COUNTRY_CODE":"US","EPOCH":"2021-09-09T22:00:00.999936","RCS_SIZE":"LARGE","INCLINATION":"53.0550","MEAN_MOTION_DDOT":"0.0000000000000","LAUNCH_DATE":"2021-05-09","BSTAR":"-0.00166980000000","REF_FRAME":"TEME","TLE_LINE1":"1 48468U 21040AS  21252.91667824 -.00025065  00000-0 -16698-2 0  9994","OBJECT_NAME":"STARLINK-2685","CENTER_NAME":"EARTH","ARG_OF_PERICENTER":"126.4599","OBJECT_TYPE":"PAYLOAD","MEAN_MOTION_DOT":"-0.00025065","MEAN_ELEMENT_THEORY":"SGP4","ELEMENT_SET_NO":"999","PERIAPSIS":"546.527","TLE_LINE2":"2 48468  53.0550   1.8123 0000996 126.4599  41.3516 15.06398933  3599","SEMIMAJOR_AXIS":"6925.352","PERIOD":"95.592"},{"BSTAR":"-0.00162430000000","REF_FRAME":"TEME","TLE_LINE1":"1 48469U 21040AT  21252.91667824 -.00024397  00000-0 -16243-2 0  9998","CENTER_NAME":"EARTH","OBJECT_NAME":"STARLINK-2661","MEAN_MOTION_DDOT":"0.0000000000000","LAUNCH_DATE":"2021-05-09","PERIAPSIS":"546.514","TLE_LINE2":"2 48469  53.0566   1.8193 0000979 127.8592 320.0163 15.06406982  3604","SEMIMAJOR_AXIS":"6925.327","PERIOD":"95.592","ARG_OF_PERICENTER":"127.8592","OBJECT_TYPE":"PAYLOAD","MEAN_ELEMENT_THEORY":"SGP4","MEAN_MOTION_DOT":"-0.00024397","ELEMENT_SET_NO":"999","GP_ID":"184410336","FILE":"3111873","ECCENTRICITY":"0.00009790","APOAPSIS":"547.870","MEAN_ANOMALY":"320.0163","RA_OF_ASC_NODE":"1.8193","MEAN_MOTION":"15.06406982","OBJECT_ID":"2021-040AT","TIME_SYSTEM":"UTC","COUNTRY_CODE":"US","EPOCH":"2021-09-09T22:00:00.999936","RCS_SIZE":"LARGE","INCLINATION":"53.0566","SITE":"AFETR","NORAD_CAT_ID":"48469","CLASSIFICATION_TYPE":"U","REV_AT_EPOCH":"360","DECAY_DATE":null,"EPHEMERIS_TYPE":"0"},{"ELEMENT_SET_NO":"999","OBJECT_TYPE":"PAYLOAD","MEAN_MOTION_DOT":"-0.00023897","MEAN_ELEMENT_THEORY":"SGP4","ARG_OF_PERICENTER":"148.3471","SEMIMAJOR_AXIS":"6925.285","PERIOD":"95.591","TLE_LINE2":"2 48470  53.0552   1.8140 0000842 148.3471 319.5178 15.06420753  3607","PERIAPSIS":"546.567","LAUNCH_DATE":"2021-05-09","MEAN_MOTION_DDOT":"0.0000000000000","OBJECT_NAME":"STARLINK-2675","CENTER_NAME":"EARTH","TLE_LINE1":"1 48470U 21040AU  21252.91667824 -.00023897  00000-0 -15899-2 0  9990","REF_FRAME":"TEME","BSTAR":"-0.00158990000000","DECAY_DATE":null,"EPHEMERIS_TYPE":"0","REV_AT_EPOCH":"360","CLASSIFICATION_TYPE":"U","NORAD_CAT_ID":"48470","SITE":"AFETR","INCLINATION":"53.0552","RCS_SIZE":"LARGE","COUNTRY_CODE":"US","EPOCH":"2021-09-09T22:00:00.999936","OBJECT_ID":"2021-040AU","TIME_SYSTEM":"UTC","RA_OF_ASC_NODE":"1.8140","MEAN_MOTION":"15.06420753","MEAN_ANOMALY":"319.5178","APOAPSIS":"547.733","ECCENTRICITY":"0.00008420","FILE":"3111873","GP_ID":"184410242"},{"ELEMENT_SET_NO":"999","MEAN_ELEMENT_THEORY":"SGP4","MEAN_MOTION_DOT":"-0.00066313","OBJECT_TYPE":"PAYLOAD","ARG_OF_PERICENTER":"119.2105","SEMIMAJOR_AXIS":"6925.272","PERIOD":"95.591","TLE_LINE2":"2 48471  53.0561   1.8185 0001130 119.2105  28.6889 15.06424919  3604","PERIAPSIS":"546.355","LAUNCH_DATE":"2021-05-09","MEAN_MOTION_DDOT":"0.0000000000000","OBJECT_NAME":"STARLINK-2684","CENTER_NAME":"EARTH","TLE_LINE1":"1 48471U 21040AV  21252.91667824 -.00066313  00000-0 -44717-2 0  9992","REF_FRAME":"TEME","BSTAR":"-0.00447170000000","EPHEMERIS_TYPE":"0","DECAY_DATE":null,"CLASSIFICATION_TYPE":"U","REV_AT_EPOCH":"360","NORAD_CAT_ID":"48471","SITE":"AFETR","INCLINATION":"53.0561","RCS_SIZE":"LARGE","EPOCH":"2021-09-09T22:00:00.999936","COUNTRY_CODE":"US","OBJECT_ID":"2021-040AV","TIME_SYSTEM":"UTC","MEAN_MOTION":"15.06424919","RA_OF_ASC_NODE":"1.8185","APOAPSIS":"547.920","MEAN_ANOMALY":"28.6889","ECCENTRICITY":"0.00011300","FILE":"3111873","GP_ID":"184410096"},{"RCS_SIZE":"LARGE","COUNTRY_CODE":"US","EPOCH":"2021-09-09T22:00:00.999936","INCLINATION":"53.0427","NORAD_CAT_ID":"48472","SITE":"AFETR","DECAY_DATE":null,"EPHEMERIS_TYPE":"0","CLASSIFICATION_TYPE":"U","REV_AT_EPOCH":"359","FILE":"3111873","GP_ID":"184409826","APOAPSIS":"547.938","MEAN_ANOMALY":"125.5499","ECCENTRICITY":"0.00012220","RA_OF_ASC_NODE":"1.8686","MEAN_MOTION":"15.06439883","TIME_SYSTEM":"UTC","OBJECT_ID":"2021-040AW","PERIAPSIS":"546.245","SEMIMAJOR_AXIS":"6925.226","PERIOD":"95.590","TLE_LINE2":"2 48472  53.0427   1.8686 0001222 122.3676 125.5499 15.06439883  3590","OBJECT_TYPE":"PAYLOAD","MEAN_ELEMENT_THEORY":"SGP4","MEAN_MOTION_DOT":"-0.00074202","ARG_OF_PERICENTER":"122.3676","ELEMENT_SET_NO":"999","REF_FRAME":"TEME","BSTAR":"-0.00500940000000","OBJECT_NAME":"STARLINK-2722","CENTER_NAME":"EARTH","TLE_LINE1":"1 48472U 21040AW  21252.91667824 -.00074202  00000-0 -50094-2 0  9994","MEAN_MOTION_DDOT":"0.0000000000000","LAUNCH_DATE":"2021-05-09"},{"TIME_SYSTEM":"UTC","OBJECT_ID":"2021-040AX","MEAN_MOTION":"15.06435062","RA_OF_ASC_NODE":"1.8209","MEAN_ANOMALY":"273.4896","APOAPSIS":"547.653","ECCENTRICITY":"0.00007890","FILE":"3111873","GP_ID":"184410013","DECAY_DATE":null,"EPHEMERIS_TYPE":"0","REV_AT_EPOCH":"360","CLASSIFICATION_TYPE":"U","NORAD_CAT_ID":"48473","SITE":"AFETR","INCLINATION":"53.0571","RCS_SIZE":"LARGE","COUNTRY_CODE":"US","EPOCH":"2021-09-09T22:00:00.999936","LAUNCH_DATE":"2021-05-09","MEAN_MOTION_DDOT":"0.0000000000000","OBJECT_NAME":"STARLINK-2658","CENTER_NAME":"EARTH","TLE_LINE1":"1 48473U 21040AX  21252.91667824 -.00048523  00000-0 -32579-2 0  9990","REF_FRAME":"TEME","BSTAR":"-0.00325790000000","ELEMENT_SET_NO":"999","OBJECT_TYPE":"PAYLOAD","MEAN_ELEMENT_THEORY":"SGP4","MEAN_MOTION_DOT":"-0.00048523","ARG_OF_PERICENTER":"134.3930","SEMIMAJOR_AXIS":"6925.241","PERIOD":"95.590","TLE_LINE2":"2 48473  53.0571   1.8209 0000789 134.3930 273.4896 15.06435062  3606","PERIAPSIS":"546.560"}];
